TELKOM 3S               
1 41944U 17007A   25056.36969613 -.00000362  00000+0  00000+0 0  9998
2 41944   0.0148 134.0480 0002148 207.9482  64.5530  1.00271190 29357
INTELSAT 32E (IS-32E)   
1 41945U 17007B   25055.31780948 -.00000266  00000+0  00000+0 0  9998
2 41945   0.0131 113.0266 0001156 322.4749 150.1340  1.00255790 29434
ECHOSTAR 23             
1 42070U 17014A   25056.60587716 -.00000056  00000+0  00000+0 0  9994
2 42070   0.0176 132.8720 0001923 194.6350 296.4058  1.00269877 29145
WGS F9 (USA 275)        
1 42075U 17016A   25055.30114172 -.00000094  00000+0  00000+0 0  9991
2 42075   0.0198 130.8105 0001099 202.3121 277.7099  1.00262419 29104
SES-10                  
1 42432U 17017A   25056.08655937 -.00000270  00000+0  00000+0 0  9990
2 42432   0.0145  84.0996 0002463 264.2210 131.1264  1.00272196 28966
CHINASAT 16 (SJ-13)     
1 42662U 17018A   25055.35808686 -.00000350  00000+0  00000+0 0  9995
2 42662   0.0139 110.6262 0003639 136.0927 147.2079  1.00290590 28941
KOREASAT 7              
1 42691U 17023A   25056.36969613 -.00000361  00000+0  00000+0 0  9995
2 42691   0.0324  53.3795 0001482 297.9213  53.1322  1.00270630 28581
SGDC                    
1 42692U 17023B   25055.77763817 -.00000246  00000+0  00000+0 0  9990
2 42692   0.0139  97.6035 0002935 255.7333   6.6371  1.00271560 28628
GSAT-9                  
1 42695U 17024A   25056.11572413 -.00000285  00000+0  00000+0 0  9996
2 42695   0.0953 271.1561 0002194  83.4159 299.6663  1.00271100 28524
INMARSAT 5-F4           
1 42698U 17025A   25055.00827561  .00000080  00000+0  00000+0 0  9996
2 42698   0.0188 111.6291 0000029 227.2291 234.7332  1.00272622 28483
SES-15                  
1 42709U 17026A   25056.54050924  .00000061  00000+0  00000+0 0  9990
2 42709   0.0330  69.2735 0000586 113.3323  38.4511  1.00271275 29409
QZS-2 (MICHIBIKI-2)     
1 42738U 17028A   25055.85858819 -.00000084  00000+0  00000+0 0  9992
2 42738  40.1706 250.1028 0746571 270.2163  85.2408  1.00265339 28346
VIASAT-2                
1 42740U 17029A   25056.08655937 -.00000263  00000+0  00000+0 0  9997
2 42740   0.0129 201.2426 0000133 244.5035  30.6937  1.00271621 28411
EUTELSAT 172B           
1 42741U 17029B   25056.30519005 -.00000005  00000+0  00000+0 0  9992
2 42741   0.0110 161.7062 0000234 306.9659 328.5841  1.00271217 28947
GSAT-19                 
1 42747U 17031A   25056.00866346  .00000127  00000+0  00000+0 0  9995
2 42747   0.0798 268.0865 0004993 108.4579 189.5482  1.00270732 28351
ECHOSTAR 21             
1 42749U 17032A   25056.18819972  .00000070  00000+0  00000+0 0  9997
2 42749   2.1347 328.5523 0002360  22.0954 242.6589  1.00274001 28311
BULGARIASAT-1           
1 42801U 17038A   25056.15947602  .00000013  00000+0  00000+0 0  9998
2 42801   0.0389  97.6117 0002696 242.4256 234.5062  1.00271111 28057
HELLAS-SAT 3            
1 42814U 17040A   25056.20233469  .00000154  00000+0  00000+0 0  9996
2 42814   0.0688  51.2173 0004846 309.9801 265.9071  1.00271178 28023
GSAT-17                 
1 42815U 17040B   25056.11572413 -.00000256  00000+0  00000+0 0  9996
2 42815   0.0613 275.5624 0004538   3.6711  11.1522  1.00272176 28087
INTELSAT 35E (IS-35E)   
1 42818U 17041A   25055.31225455 -.00000234  00000+0  00000+0 0  9998
2 42818   0.0136 137.4406 0002605 209.6569 245.2261  1.00270609 28029
COSMOS 2520             
1 42907U 17046A   25047.80433914  .00000142  00000+0  00000+0 0  9995
2 42907   0.0283 103.0117 0000908 223.2357 155.3440  1.00275138 27526
TDRS 13                 
1 42915U 17047A   25056.25535828 -.00000093  00000+0  00000+0 0  9997
2 42915   3.4854 350.4972 0011732 105.0232 140.2947  1.00271172 27562
QZS-3 (MICHIBIKI-3)     
1 42917U 17048A   25055.83011453 -.00000346  00000+0  00000+0 0  9997
2 42917   0.0566 187.7947 0001592 154.2137 238.7038  1.00266429 27588
AMAZONAS 5              
1 42934U 17053A   25055.32336462 -.00000278  00000+0  00000+0 0  9990
2 42934   0.0480 310.5038 0005050  17.7817 241.5218  1.00270402 27252
ASIASAT 9               
1 42942U 17057A   25055.87906885 -.00000357  00000+0  00000+0 0  9993
2 42942   0.0114 127.4971 0002005 210.0911 255.9405  1.00269574 27071
INTELSAT 37E (IS-37E)   
1 42950U 17059A   25056.09990602 -.00000139  00000+0  00000+0 0  9997
2 42950   0.0220 146.0464 0002106 187.4159 199.7223  1.00269520 27282
BSAT-4A                 
1 42951U 17059B   25056.60198005 -.00000349  00000+0  00000+0 0  9995
2 42951   0.0170 320.9412 0003704  55.8380 105.5032  1.00269504 27175
QZS-4 (MICHIBIKI-4)     
1 42965U 17062A   25056.29291240 -.00000292  00000+0  00000+0 0  9991
2 42965  40.3886 349.5704 0748850 269.5094 141.4167  1.00283514 27036
SES-11 (ECHOSTAR 105)   
1 42967U 17063A   25056.56263451 -.00000088  00000+0  00000+0 0  9990
2 42967   0.0235 108.7604 0002406 229.8752 274.6421  1.00269516 26940
KOREASAT 5A             
1 42984U 17067A   25056.45600112 -.00000357  00000+0  00000+0 0  9999
2 42984   0.0259 116.0648 0001058 232.3171  84.4990  1.00267959 26746
ALCOMSAT 1              
1 43039U 17078A   25056.22128302 -.00000184  00000+0  00000+0 0  9992
2 43039   0.0257 180.5466 0002416 128.3095 261.3272  1.00271946 26513
SBIRS GEO-3 (USA 282)   
1 43162U 18009A   25056.62602704  .00000132  00000+0  00000+0 0  9993
2 43162   2.1406 347.1585 0002222 349.0872 245.4314  1.00272053 26062
AL YAH 3                
1 43174U 18012A   25056.22128302 -.00000154  00000+0  00000+0 0  9998
2 43174   0.3140  89.7541 0004402 260.7317 224.3775  1.00270721 26063
SES-14                  
1 43175U 18012B   25056.23239266 -.00000277  00000+0  00000+0 0  9998
2 43175   0.0231 104.9942 0000921 211.7277 234.7933  1.00268645  2247
GOES 17                 
1 43226U 18022A   25056.64342999 -.00000092  00000+0  00000+0 0  9994
2 43226   0.0488 301.9215 0001525 141.6178 199.4219  1.00271375 25649
HISPASAT 30W-6          
1 43228U 18023A   25056.22683774 -.00000215  00000+0  00000+0 0  9997
2 43228   0.0444  46.5023 0005045 313.6555 206.7872  1.00270001 25623
SUPERBIRD-B3            
1 43271U 18033A   25055.65483735 -.00000090  00000+0  00000+0 0  9998
2 43271   0.0238 141.5641 0001044 201.2331 209.7051  1.00269248 25277
HYLAS 4                 
1 43272U 18033B   25056.22683774 -.00000232  00000+0  00000+0 0  9996
2 43272   0.0689 272.9494 0001019  86.8504 203.6797  1.00270414 25293
USA 283                 
1 43339U 18036A   25053.62118052 -.00000309  00000+0  00000+0 0  9991
2 43339   0.0072 166.2068 0000145 192.0212 152.2353  1.00270376 20480
COSMOS 2526             
1 43432U 18037A   25055.57405895 -.00000341  00000+0  00000+0 0  9992
2 43432   0.0275 105.2416 0000164  17.5452   6.5896  1.00271089 25173
APSTAR-6C               
1 43450U 18041A   25055.82406480 -.00000315  00000+0  00000+0 0  9997
2 43450   0.0459 308.7457 0002955  17.8508 258.9990  1.00270833 25025
BANGABANDHUSAT-1        
1 43463U 18044A   25056.36969613 -.00000361  00000+0  00000+0 0  9997
2 43463   0.0127 133.5519 0002614 217.0634  57.0210  1.00269797 24928
SES-12                  
1 43488U 18049A   25056.11572413 -.00000267  00000+0  00000+0 0  9995
2 43488   0.0172  72.9345 0002055 223.9442 354.9797  1.00270530 24634
FENGYUN 2H              
1 43491U 18050A   25055.64820014 -.00000121  00000+0  00000+0 0  9990
2 43491   1.7961  84.7947 0000809 222.0541 160.1212  1.00266944 24651
BEIDOU-2 IGSO-7         
1 43539U 18057A   25056.61480122 -.00000163  00000+0  00000+0 0  9996
2 43539  55.1600 167.1927 0084940 234.6670  86.8317  1.00290776 24347
TELSTAR 19V             
1 43562U 18059A   25055.32336462 -.00000276  00000+0  00000+0 0  9993
2 43562   0.0193 163.1775 0002529 161.1855 243.5221  1.00275387 24356
TELKOM 4 (MERAH PUTIH)  
1 43587U 18064A   25056.07336416 -.00000342  00000+0  00000+0 0  9992
2 43587   0.0102 106.0250 0001965 276.2754 267.2763  1.00271339 24094
TELSTAR 18V             
1 43611U 18069A   25056.35115858 -.00000293  00000+0  00000+0 0  9996
2 43611   0.0211 235.2702 0001587 101.2063  83.3785  1.00272263 23840
AZERSPACE 2 (IS-38)     
1 43632U 18074A   25056.00646534  .00000139  00000+0  00000+0 0  9995
2 43632   0.0231 133.1581 0001278 205.0692 224.3296  1.00269606 23665
HORIZONS-3E             
1 43633U 18074B   25055.66331483 -.00000028  00000+0  00000+0 0  9999
2 43633   0.0409 294.3291 0001161   2.0852 266.1283  1.00272304 23552
AEHF-4 (USA 288)        
1 43651U 18079A   25056.08655937 -.00000270  00000+0  00000+0 0  9993
2 43651   1.5711 337.3645 0051989   7.1280 134.3023  1.00268210 23514
BEIDOU-3 G1             
1 43683U 18085A   25056.52698419 -.00000277  00000+0  00000+0 0  9993
2 43683   2.8222 101.1316 0002663 357.0614  27.1268  1.00274921 23285
GSAT-29                 
1 43698U 18089A   25056.01417631  .00000087  00000+0  00000+0 0  9990
2 43698   0.0747 271.7382 0001803  46.0583 257.4797  1.00268588 23013
ES'HAIL 2               
1 43700U 18090A   25056.19350498  .00000146  00000+0  00000+0 0  9998
2 43700   0.0121 114.8340 0001227 252.0249 243.8790  1.00270979 22896
GEO-KOMPSAT-2A          
1 43823U 18100A   25056.24142112 -.00000343  00000+0  00000+0 0  9994
2 43823   0.0184  64.1984 0001557 352.3822 313.9137  1.00270069 22848
GSAT-11                 
1 43824U 18100B   25055.95669812 -.00000075  00000+0  00000+0 0  9995
2 43824   0.1137 268.9905 0003645 134.5210 169.9652  1.00272079 22693
GSAT-7A                 
1 43864U 18105A   25056.02082940  .00000028  00000+0  00000+0 0  9991
2 43864   0.0960 270.0272 0001797  53.8304 261.5099  1.00272513 22668
COSMOS 2533             
1 43867U 18107A   25055.95669812 -.00000035  00000+0  00000+0 0  9995
2 43867   0.0155 108.7514 0000499 173.4101 287.2726  1.00268903 22654
TJS-3                   
1 43874U 18110A   25056.76486451 -.00000214  00000+0  00000+0 0  9992
2 43874   1.3101  86.2856 0001961  26.9206 106.4636  1.00270955 22707
